{
  "type": "FeatureCollection",
  "features": [
    {
      "type": "Feature",
      "properties": {
        "norad_id": 66893,
        "name": "STARLINK-36033",
        "group": "last-30-days",
        "lat": -52.74201177315954,
        "lon": -36.94687875091237,
        "alt_km": 309.2055615750487,
        "timestamp": "2025-12-14T22:38:39.519234+00:00",
        "meta_object_name": "STARLINK-36033",
        "meta_object_id": "2025-283R",
        "meta_epoch": "2025-12-14T06:00:02.999808",
        "meta_mean_motion": 15.91408885,
        "meta_eccentricity": 9.8e-05,
        "meta_inclination": 53.1549,
        "meta_ra_of_asc_node": 66.2276,
        "meta_arg_of_pericenter": 79.5761,
        "meta_mean_anomaly": 171.6902,
        "meta_ephemeris_type": 0,
        "meta_classification_type": "U",
        "meta_norad_cat_id": 66893,
        "meta_element_set_no": 999,
        "meta_rev_at_epoch": 267,
        "meta_bstar": -0.0043906374,
        "meta_mean_motion_dot": -0.01442443,
        "meta_mean_motion_ddot": 0.00059233455,
        "tle_line1": "1 66893U 25283R   25348.25003472 -.01442443  59233-3 -43906-2 0  9990",
        "tle_line2": "2 66893  53.1549  66.2276 0000980  79.5761 171.6902 15.91408885  2672"
      },
      "geometry": {
        "type": "Point",
        "coordinates": [
          -36.94687875091237,
          -52.74201177315954
        ]
      }
    },
    {
      "type": "Feature",
      "properties": {
        "norad_id": 66894,
        "name": "STARLINK-35718",
        "group": "last-30-days",
        "lat": -53.04397277138333,
        "lon": -31.95916949152002,
        "alt_km": 309.14147523514566,
        "timestamp": "2025-12-14T22:38:39.519245+00:00",
        "meta_object_name": "STARLINK-35718",
        "meta_object_id": "2025-283S",
        "meta_epoch": "2025-12-14T06:00:02.999808",
        "meta_mean_motion": 15.91465065,
        "meta_eccentricity": 8.646e-05,
        "meta_inclination": 53.1552,
        "meta_ra_of_asc_node": 66.2216,
        "meta_arg_of_pericenter": 83.3661,
        "meta_mean_anomaly": 170.8691,
        "meta_ephemeris_type": 0,
        "meta_classification_type": "U",
        "meta_norad_cat_id": 66894,
        "meta_element_set_no": 999,
        "meta_rev_at_epoch": 267,
        "meta_bstar": -0.0045202252,
        "meta_mean_motion_dot": -0.01488719,
        "meta_mean_motion_ddot": 0.00062786369,
        "tle_line1": "1 66894U 25283S   25348.25003472 -.01488719  62786-3 -45202-2 0  9995",
        "tle_line2": "2 66894  53.1552  66.2216 0000864  83.3661 170.8691 15.91465065  2673"
      },
      "geometry": {
        "type": "Point",
        "coordinates": [
          -31.95916949152002,
          -53.04397277138333
        ]
      }
    },
    {
      "type": "Feature",
      "properties": {
        "norad_id": 66895,
        "name": "STARLINK-35971",
        "group": "last-30-days",
        "lat": -53.069608896644816,
        "lon": -23.392640797834908,
        "alt_km": 309.0859138710539,
        "timestamp": "2025-12-14T22:38:39.519255+00:00",
        "meta_object_name": "STARLINK-35971",
        "meta_object_id": "2025-283T",
        "meta_epoch": "2025-12-14T06:00:02.999808",
        "meta_mean_motion": 15.91550112,
        "meta_eccentricity": 8.92e-05,
        "meta_inclination": 53.1545,
        "meta_ra_of_asc_node": 66.2104,
        "meta_arg_of_pericenter": 86.4871,
        "meta_mean_anomaly": 172.7731,
        "meta_ephemeris_type": 0,
        "meta_classification_type": "U",
        "meta_norad_cat_id": 66895,
        "meta_element_set_no": 999,
        "meta_rev_at_epoch": 267,
        "meta_bstar": -0.0046393672,
        "meta_mean_motion_dot": -0.01534094,
        "meta_mean_motion_ddot": 0.00066386338,
        "tle_line1": "1 66895U 25283T   25348.25003472 -.01534094  66386-3 -46394-2 0  9997",
        "tle_line2": "2 66895  53.1545  66.2104 0000892  86.4871 172.7731 15.91550112  2674"
      },
      "geometry": {
        "type": "Point",
        "coordinates": [
          -23.392640797834908,
          -53.069608896644816
        ]
      }
    },
    {
      "type": "Feature",
      "properties": {
        "norad_id": 66896,
        "name": "STARLINK-35791",
        "group": "last-30-days",
        "lat": -53.13437844175748,
        "lon": -27.450376216231515,
        "alt_km": 309.06185348090366,
        "timestamp": "2025-12-14T22:38:39.519265+00:00",
        "meta_object_name": "STARLINK-35791",
        "meta_object_id": "2025-283U",
        "meta_epoch": "2025-12-14T06:00:02.999808",
        "meta_mean_motion": 15.91511696,
        "meta_eccentricity": 7.871e-05,
        "meta_inclination": 53.1548,
        "meta_ra_of_asc_node": 66.2154,
        "meta_arg_of_pericenter": 82.5288,
        "meta_mean_anomaly": 174.3564,
        "meta_ephemeris_type": 0,
        "meta_classification_type": "U",
        "meta_norad_cat_id": 66896,
        "meta_element_set_no": 999,
        "meta_rev_at_epoch": 267,
        "meta_bstar": -0.004598893,
        "meta_mean_motion_dot": -0.01517892,
        "meta_mean_motion_ddot": 0.00065084549,
        "tle_line1": "1 66896U 25283U   25348.25003472 -.01517892  65085-3 -45989-2 0  9999",
        "tle_line2": "2 66896  53.1548  66.2154 0000787  82.5288 174.3564 15.91511696  2671"
      },
      "geometry": {
        "type": "Point",
        "coordinates": [
          -27.450376216231515,
          -53.13437844175748
        ]
      }
    },
    {
      "type": "Feature",
      "properties": {
        "norad_id": 66897,
        "name": "STARLINK-36079",
        "group": "last-30-days",
        "lat": -52.82418701789215,
        "lon": -18.737691402946744,
        "alt_km": 308.96000305487905,
        "timestamp": "2025-12-14T22:38:39.519277+00:00",
        "meta_object_name": "STARLINK-36079",
        "meta_object_id": "2025-283V",
        "meta_epoch": "2025-12-14T06:00:02.999808",
        "meta_mean_motion": 15.91584386,
        "meta_eccentricity": 8.065e-05,
        "meta_inclination": 53.1548,
        "meta_ra_of_asc_node": 66.2051,
        "meta_arg_of_pericenter": 84.4436,
        "meta_mean_anomaly": 177.5746,
        "meta_ephemeris_type": 0,
        "meta_classification_type": "U",
        "meta_norad_cat_id": 66897,
        "meta_element_set_no": 999,
        "meta_rev_at_epoch": 267,
        "meta_bstar": -0.0046666315,
        "meta_mean_motion_dot": -0.01545681,
        "meta_mean_motion_ddot": 0.00067329607,
        "tle_line1": "1 66897U 25283V   25348.25003472 -.01545681  67330-3 -46666-2 0  9995",
        "tle_line2": "2 66897  53.1548  66.2051 0000806  84.4436 177.5746 15.91584386  2679"
      },
      "geometry": {
        "type": "Point",
        "coordinates": [
          -18.737691402946744,
          -52.82418701789215
        ]
      }
    },
    {
      "type": "Feature",
      "properties": {
        "norad_id": 66898,
        "name": "STARLINK-36065",
        "group": "last-30-days",
        "lat": -52.40745062388072,
        "lon": -14.238228883595367,
        "alt_km": 308.9542857716142,
        "timestamp": "2025-12-14T22:38:39.519287+00:00",
        "meta_object_name": "STARLINK-36065",
        "meta_object_id": "2025-283W",
        "meta_epoch": "2025-12-14T06:00:02.999808",
        "meta_mean_motion": 15.91621094,
        "meta_eccentricity": 8.976e-05,
        "meta_inclination": 53.1544,
        "meta_ra_of_asc_node": 66.1989,
        "meta_arg_of_pericenter": 82.5701,
        "meta_mean_anomaly": 182.1539,
        "meta_ephemeris_type": 0,
        "meta_classification_type": "U",
        "meta_norad_cat_id": 66898,
        "meta_element_set_no": 999,
        "meta_rev_at_epoch": 267,
        "meta_bstar": -0.004703096,
        "meta_mean_motion_dot": -0.01560533,
        "meta_mean_motion_ddot": 0.00068543722,
        "tle_line1": "1 66898U 25283W   25348.25003472 -.01560533  68544-3 -47031-2 0  9994",
        "tle_line2": "2 66898  53.1544  66.1989 0000897  82.5701 182.1539 15.91621094  2679"
      },
      "geometry": {
        "type": "Point",
        "coordinates": [
          -14.238228883595367,
          -52.40745062388072
        ]
      }
    },
    {
      "type": "Feature",
      "properties": {
        "norad_id": 66899,
        "name": "STARLINK-36064",
        "group": "last-30-days",
        "lat": -51.86343123074413,
        "lon": -10.102670778382665,
        "alt_km": 308.8974077734756,
        "timestamp": "2025-12-14T22:38:39.519301+00:00",
        "meta_object_name": "STARLINK-36064",
        "meta_object_id": "2025-283X",
        "meta_epoch": "2025-12-14T06:00:02.999808",
        "meta_mean_motion": 15.91652586,
        "meta_eccentricity": 9.577e-05,
        "meta_inclination": 53.1543,
        "meta_ra_of_asc_node": 66.1937,
        "meta_arg_of_pericenter": 81.2122,
        "meta_mean_anomaly": 186.0451,
        "meta_ephemeris_type": 0,
        "meta_classification_type": "U",
        "meta_norad_cat_id": 66899,
        "meta_element_set_no": 999,
        "meta_rev_at_epoch": 261,
        "meta_bstar": -0.0047089425,
        "meta_mean_motion_dot": -0.01564968,
        "meta_mean_motion_ddot": 0.00068922051,
        "tle_line1": "1 66899U 25283X   25348.25003472 -.01564968  68922-3 -47089-2 0  9994",
        "tle_line2": "2 66899  53.1543  66.1937 0000957  81.2122 186.0451 15.91652586  2612"
      },
      "geometry": {
        "type": "Point",
        "coordinates": [
          -10.102670778382665,
          -51.86343123074413
        ]
      }
    }
  ]
}